GLOBALSTAR M084         
1 38040U 11080A   24351.17903773 -.00000068  00000+0  19809-3 0  9991
2 38040  52.0001 245.6179 0001078  54.2619 110.4998 12.62272448599836
GLOBALSTAR M080         
1 38041U 11080B   24350.90000010 -.00000067  00000+0  20517-3 0  9991
2 38041  52.0054 248.0113 0000961  35.9498  59.2666 12.62259322599648
GLOBALSTAR M082         
1 38042U 11080C   24350.82668049 -.00000064  00000+0  22176-3 0  9995
2 38042  52.0050 203.6604 0001349 101.2142 321.1501 12.62271295600343
GLOBALSTAR M092         
1 38043U 11080D   24350.86975036 -.00000082  00000+0  12369-3 0  9990
2 38043  52.0094 293.8955 0000718  56.5623 321.6791 12.62270466598809
GLOBALSTAR M090         
1 38044U 11080E   24350.84237593 -.00000068  00000+0  19999-3 0  9998
2 38044  51.9860 197.6562 0001104  95.0141 278.9472 12.62265111600464
GLOBALSTAR M086         
1 38045U 11080F   24350.86845961 -.00000077  00000+0  14914-3 0  9997
2 38045  51.9869 198.1134 0000266  44.9234 328.0931 12.62264767600417
GLOBALSTAR M097         
1 39072U 13005A   24350.73402110 -.00000130  00000+0 -14674-3 0  9992
2 39072  52.0037 112.8830 0000809 125.8782 234.2160 12.62268205547641
GLOBALSTAR M093         
1 39073U 13005B   24350.70701324 -.00000115  00000+0 -59962-4 0  9992
2 39073  51.9803 106.5575 0000872 132.7129 227.3811 12.62277222547598
